{
  "norad_id": 53176,
  "name": "STARLINK-4294",
  "history": [
    {
      "epoch": "2026-03-28T21:40:31.845504",
      "apogee_km": 540.6987355062656,
      "perigee_km": 538.8320087301736,
      "latitude_deg": -4.512013626301417,
      "longitude_deg": -55.69794943975285,
      "semi_major_axis_km": 6917.902372118219,
      "eccentricity": 0.00013492,
      "inclination_deg": 53.2174,
      "raan_deg": 62.7787,
      "arg_perigee_deg": 89.9862,
      "mean_anomaly_deg": 270.1285,
      "mean_motion_rev_day": 15.08832808
    },
    {
      "epoch": "2026-03-29T04:02:03.986880",
      "apogee_km": 540.706471380543,
      "perigee_km": 538.7846836005156,
      "latitude_deg": 49.257435512606676,
      "longitude_deg": -30.262236799811944,
      "semi_major_axis_km": 6917.882577490529,
      "eccentricity": 0.0001389,
      "inclination_deg": 53.2176,
      "raan_deg": 61.5902,
      "arg_perigee_deg": 93.2937,
      "mean_anomaly_deg": 266.8214,
      "mean_motion_rev_day": 15.08839284
    }
  ]
}